{"type":"FeatureCollection","features":[{"type":"Feature","properties":{"Landmarks":"Jensen House 193","Address":"1675 La Loma Avenue","Architect & Date":"(George P. Jensen & A. Edgar Jensen, 1891)","Link  ":"http://berkeleyheritage.com/berkeley_landmarks/images/Jensen_house.jpg","Designated":"\t10/7/1996","Notes":"CA State Historic Resources Inventory"},"geometry":{"type":"Point","coordinates":[-122.25686,37.87875964]}},{"type":"Feature","properties":{"Landmarks":"Longfellow School 196","Address":"1500 Derby Street","Architect & Date":"William C. Hays (1922); James W. Plachek (1930)","Link  ":"http://berkeleyheritage.com/berkeley_landmarks/images/Longfellow_School1.jpg","Designated":"2-Dec-96","Notes":""},"geometry":{"type":"Point","coordinates":[-122.2789497,37.85838982]}},{"type":"Feature","properties":{"Landmarks":"Jennie C. Smith House 200","Address":"\t2539 Benvenue Avenue","Architect & Date":"George Frederick Estey (1897)\t","Link  ":"http://berkeleyheritage.com/berkeley_landmarks/images/Jennie_Smith_house.jpg","Designated":"7-Jul-97","Notes":""},"geometry":{"type":"Point","coordinates":[-122.2546853,37.86411076]}},{"type":"Feature","properties":{"Landmarks":"Charles Wilkinson House 186","Address":"2730 Dwight Way","Architect & Date":"Clinton Day (1879)","Link  ":"http://berkeleyheritage.com/berkeley_landmarks/images/Wilkinson_house.jpg","Designated":"\t6 Feb 1995","Notes":"CA State Historic Resources Inventory"},"geometry":{"type":"Point","coordinates":[-122.2522498,37.86562217]}},{"type":"Feature","properties":{"Landmarks":"Elmer Buckman House 186","Address":"920 Shattuck Avenue","Architect & Date":"Walter H. Ratcliff, Jr. (1909)","Link  ":"http://berkeleyheritage.com/berkeley_landmarks/images/Elmer_Buckman_house3.jpg","Designated":"6-Jun-94","Notes":""},"geometry":{"type":"Point","coordinates":[-122.2704963,37.89050023]}},{"type":"Feature","properties":{"Landmarks":"Hotel Durant 180","Address":"\t2600 Durant","Architect & Date":"William H. Weeks (1928)","Link  ":"http://berkeleyheritage.com/berkeley_landmarks/images/durant_hotel.jpg","Designated":"1-Feb-93","Notes":"Structure of Merit\nCA State Historic Resources Inventory"},"geometry":{"type":"Point","coordinates":[-122.2563215,37.86791177]}},{"type":"Feature","properties":{"Landmarks":"Thomas Andrews House 176","Address":"1812 Sixth Street","Architect & Date":"(c. 1880)\n","Link  ":"http://berkeleyheritage.com/berkeley_landmarks/workman_cottages.html","Designated":"15 Jun 1992\t","Notes":"CA State Historic Resources Inventory"},"geometry":{"type":"Point","coordinates":[-122.2988422,37.8699527]}},{"type":"Feature","properties":{"Landmarks":"Elks Club 168","Address":"2018 Allston Way","Architect & Date":"Walter H. Ratcliff, Jr. (1913)","Link  ":"http://berkeleyheritage.com/berkeley_landmarks/images/Elks_Club.jpg","Designated":"7-Oct-91","Notes":"CA State Historic Resources Inventory"},"geometry":{"type":"Point","coordinates":[-122.269533,37.86893677]}},{"type":"Feature","properties":{"Landmarks":"Morrison House 139","Address":"2532 Benvenue Avenue","Architect & Date":"(c. 1903)\n","Link  ":"http://berkeleyheritage.com/berkeley_landmarks/images/Morrison_house1.jpg","Designated":"18 Jun 1990\t","Notes":"Structure of Merit"},"geometry":{"type":"Point","coordinates":[-122.2553293,37.86424729]}},{"type":"Feature","properties":{"Landmarks":"Sigma Pi Chapter House 136","Address":"2395 Piedmont Avenue\t","Architect & Date":"Frederick H. Reimers (1928)\t","Link  ":"http://berkeleyheritage.com/berkeley_landmarks/images/Sigma_Pi.jpg","Designated":"21 May 1990\t","Notes":""},"geometry":{"type":"Point","coordinates":[-122.2514845,37.86814464]}}]}
